[{"OBJECT_NAME":"STARLINK-2655","OBJECT_ID":"2021-040X","EPOCH":"2026-03-09T13:34:27.715584","MEAN_MOTION":15.3019658,"ECCENTRICITY":0.0001428,"INCLINATION":53.1635,"RA_OF_ASC_NODE":178.7122,"ARG_OF_PERICENTER":91.6237,"MEAN_ANOMALY":268.4927,"EPHEMERIS_TYPE":0,"CLASSIFICATION_TYPE":"U","NORAD_CAT_ID":48449,"ELEMENT_SET_NO":999,"REV_AT_EPOCH":26666,"BSTAR":-2.498e-6,"MEAN_MOTION_DOT":-4.33e-6,"MEAN_MOTION_DDOT":0},{"OBJECT_NAME":"ION SCV-008","OBJECT_ID":"2023-001AU","EPOCH":"2026-03-09T19:46:58.662912","MEAN_MOTION":15.2722664,"ECCENTRICITY":0.00151921,"INCLINATION":97.5676,"RA_OF_ASC_NODE":163.606,"ARG_OF_PERICENTER":8.542,"MEAN_ANOMALY":351.6074,"EPHEMERIS_TYPE":0,"CLASSIFICATION_TYPE":"U","NORAD_CAT_ID":55051,"ELEMENT_SET_NO":999,"REV_AT_EPOCH":17616,"BSTAR":0.00031422806,"MEAN_MOTION_DOT":8.336e-5,"MEAN_MOTION_DDOT":0}]
